NORAD_CAT_ID,OBJECT_NAME,OBJECT_TYPE,EPOCH,MEAN_MOTION,ECCENTRICITY,INCLINATION,RA_OF_ASC_NODE,ARG_OF_PERICENTER,MEAN_ANOMALY,BSTAR,MEAN_MOTION_DOT,MEAN_MOTION_DDOT,TLE_LINE0,TLE_LINE1,TLE_LINE2,SEMIMAJOR_AXIS,PERIOD,APOGEE,PERIGEE,DECAYED
52551.0,STARLINK-3969,PAYLOAD,2024-01-18 21:38:15,15.08843624,0.0001585,53.2174,34.2184,97.0296,263.0876,0.00027814,4.142e-05,0.0,0 STARLINK-3969,1 52551U 22051U   24018.90156892  .00004142  00000-0  27814-3 0  9999,2 52551  53.2174  34.2184 0001585  97.0296 263.0876 15.08843624 93573,6917.869,95.437,540.831,538.638,0.0
52551.0,STARLINK-3969,PAYLOAD,2024-01-19 00:49:01,15.08845304,0.0001561,53.2169,33.6213,98.5317,261.5852,0.00028488,4.249e-05,0.0,0 STARLINK-3969,1 52551U 22051U   24019.03404791  .00004249  00000-0  28488-3 0  9994,2 52551  53.2169  33.6213 0001561  98.5317 261.5852 15.08845304 93661,6917.864,95.437,540.809,538.649,0.0
52551.0,STARLINK-3969,PAYLOAD,2024-01-19 07:10:34,15.08852051,0.0001612,53.2167,32.4322,87.9197,272.1979,0.00030576,4.583e-05,0.0,0 STARLINK-3969,1 52551U 22051U   24019.29900519  .00004583  00000-0  30576-3 0  9993,2 52551  53.2167  32.4322 0001612  87.9197 272.1979 15.08852051 93634,6917.844,95.437,540.824,538.593,0.0
52551.0,STARLINK-3969,PAYLOAD,2024-01-20 03:50:34,15.08845425,0.0002323,53.2175,28.5691,124.6908,235.4304,0.00015453,2.172e-05,0.0,0 STARLINK-3969,1 52551U 22051U   24020.16012557  .00002172  00000-0  15453-3 0  9996,2 52551  53.2175  28.5691 0002323 124.6908 235.4304 15.08845425 93830,6917.864,95.437,541.336,538.122,0.0
52551.0,STARLINK-3969,PAYLOAD,2024-01-20 07:01:21,15.08845716,0.0001578,53.2173,27.9715,104.1371,255.9796,0.00017625,2.519e-05,0.0,0 STARLINK-3969,1 52551U 22051U   24020.29260657  .00002519  00000-0  17625-3 0  9994,2 52551  53.2173  27.9715 0001578 104.1371 255.9796 15.08845716 93785,6917.863,95.437,540.82,538.636,0.0
52551.0,STARLINK-3969,PAYLOAD,2024-01-21 03:41:22,15.08842385,0.0001602,53.2185,24.1071,100.3602,259.7571,0.00010017,1.307e-05,0.0,0 STARLINK-3969,1 52551U 22051U   24021.15372818  .00001307  00000-0  10017-3 0  9995,2 52551  53.2185  24.1071 0001602 100.3602 259.7571 15.08842385 93989,6917.873,95.437,540.846,538.63,0.0
52551.0,STARLINK-3969,PAYLOAD,2024-01-21 06:52:08,15.08845454,0.0001643,53.2189,23.512,103.8536,256.2639,0.00012902,1.766e-05,0.0,0 STARLINK-3969,1 52551U 22051U   24021.28620679  .00001766  00000-0  12902-3 0  9994,2 52551  53.2189  23.5120 0001643 103.8536 256.2639 15.08845454 93932,6917.864,95.437,540.865,538.592,0.0
52551.0,STARLINK-3969,PAYLOAD,2024-01-21 10:02:54,15.08848683,0.0001846,53.2183,22.9129,107.1478,252.9717,0.00011791,1.589e-05,0.0,0 STARLINK-3969,1 52551U 22051U   24021.41868460  .00001589  00000-0  11791-3 0  9999,2 52551  53.2183  22.9129 0001846 107.1478 252.9717 15.08848683 93954,6917.854,95.437,540.996,538.442,0.0
52551.0,STARLINK-3969,PAYLOAD,2024-01-22 03:32:09,15.0883566,0.0001632,53.2174,19.6401,108.2141,251.9028,0.00031229,4.685e-05,0.0,0 STARLINK-3969,1 52551U 22051U   24022.14733077  .00004685  00000-0  31229-3 0  9993,2 52551  53.2174  19.6401 0001632 108.2141 251.9028 15.08835660 94138,6917.894,95.438,540.888,538.63,0.0
52551.0,STARLINK-3969,PAYLOAD,2024-01-22 06:42:55,15.08848772,0.0001468,53.2173,19.0454,94.3884,265.7275,0.00018223,2.614e-05,0.0,0 STARLINK-3969,1 52551U 22051U   24022.27980500  .00002614  00000-0  18223-3 0  9991,2 52551  53.2173  19.0454 0001468  94.3884 265.7275 15.08848772 94152,6917.854,95.437,540.734,538.703,0.0
52551.0,STARLINK-3969,PAYLOAD,2024-01-23 03:22:56,15.08839783,0.0001389,53.2173,15.1795,93.4733,266.6418,2.3668e-05,8.9e-07,0.0,0 STARLINK-3969,1 52551U 22051U   24023.14092902  .00000089  00000-0  23668-4 0  9992,2 52551  53.2173  15.1795 0001389  93.4733 266.6418 15.08839783 94287,6917.881,95.438,540.707,538.785,0.0
52551.0,STARLINK-3969,PAYLOAD,2024-01-23 04:58:19,15.08841728,0.000138,53.2173,14.8821,89.8503,270.2647,5.8778e-05,6.48e-06,0.0,0 STARLINK-3969,1 52551U 22051U   24023.20716843  .00000648  00000-0  58778-4 0  9997,2 52551  53.2173  14.8821 0001380  89.8503 270.2647 15.08841728 94229,6917.875,95.437,540.695,538.785,0.0
52551.0,STARLINK-3969,PAYLOAD,2024-01-23 20:52:10,15.08839912,0.000136,53.2173,11.9075,91.2279,268.8869,8.6148e-05,1.083e-05,0.0,0 STARLINK-3969,1 52551U 22051U   24023.86956976  .00001083  00000-0  86148-4 0  9998,2 52551  53.2173  11.9075 0001360  91.2279 268.8869 15.08839912 94325,6917.881,95.438,540.686,538.805,0.0
52551.0,STARLINK-3969,PAYLOAD,2024-01-24 06:24:29,15.08849368,0.0001367,53.2173,10.1285,94.0351,266.0797,0.00018203,2.611e-05,0.0,0 STARLINK-3969,1 52551U 22051U   24024.26700578  .00002611  00000-0  18203-3 0  9992,2 52551  53.2173  10.1285 0001367  94.0351 266.0797 15.08849368 94458,6917.852,95.437,540.662,538.771,0.0
52551.0,STARLINK-3969,PAYLOAD,2024-01-25 06:15:15,15.08843874,0.0001255,53.2173,5.6709,86.8069,273.3067,6.6548e-06,-1.82e-06,0.0,0 STARLINK-3969,1 52551U 22051U   24025.26060005 -.00000182  00000-0  66548-5 0  9996,2 52551  53.2173   5.6709 0001255  86.8069 273.3067 15.08843874 94603,6917.869,95.437,540.602,538.865,0.0
52551.0,STARLINK-3969,PAYLOAD,2024-01-26 02:55:17,15.08828584,0.0001619,53.2181,1.8078,77.9755,282.1418,-0.00011867,-2.176e-05,0.0,0 STARLINK-3969,1 52551U 22051U   24026.12173136 -.00002176  00000-0 -11867-3 0  9990,2 52551  53.2181   1.8078 0001619  77.9755 282.1418 15.08828584 94739,6917.915,95.438,540.9,538.66,0.0
52551.0,STARLINK-3969,PAYLOAD,2024-01-26 04:30:40,15.08832164,0.0001724,53.2188,1.5093,66.6875,293.4299,-6.5226e-05,-1.326e-05,0.0,0 STARLINK-3969,1 52551U 22051U   24026.18797319 -.00001326  00000-0 -65226-4 0  9996,2 52551  53.2188   1.5093 0001724  66.6875 293.4299 15.08832164 94679,6917.904,95.438,540.962,538.577,0.0
52551.0,STARLINK-3969,PAYLOAD,2024-01-27 07:32:14,15.08843226,0.0001611,53.2183,356.4458,79.3709,280.7464,0.00046542,7.128e-05,0.0,0 STARLINK-3969,1 52551U 22051U   24027.31405558  .00007128  00000-0  46542-3 0  9996,2 52551  53.2183 356.4458 0001611  79.3709 280.7464 15.08843226 94846,6917.871,95.437,540.85,538.621,0.0
52551.0,STARLINK-3969,PAYLOAD,2024-01-28 04:12:15,15.08844986,0.0001768,53.2192,352.58,102.8058,257.3132,0.00023855,3.511e-05,0.0,0 STARLINK-3969,1 52551U 22051U   24028.17517413  .00003511  00000-0  23855-3 0  9999,2 52551  53.2192 352.5800 0001768 102.8058 257.3132 15.08844986 95045,6917.865,95.437,540.953,538.507,0.0
52551.0,STARLINK-3969,PAYLOAD,2024-01-28 07:23:01,15.08844864,0.0001806,53.2196,351.9854,100.7343,259.3853,0.00025858,3.83e-05,0.0,0 STARLINK-3969,1 52551U 22051U   24028.30765430  .00003830  00000-0  25858-3 0  9997,2 52551  53.2196 351.9854 0001806 100.7343 259.3853 15.08844864 94998,6917.866,95.437,540.98,538.481,0.0
52551.0,STARLINK-3969,PAYLOAD,2024-01-29 04:03:02,15.08839667,0.0001706,53.2194,348.1192,104.825,255.2932,3.1926e-05,2.2e-06,0.0,0 STARLINK-3969,1 52551U 22051U   24029.16877612  .00000220  00000-0  31926-4 0  9992,2 52551  53.2194 348.1192 0001706 104.8250 255.2932 15.08839667 95191,6917.881,95.438,540.927,538.566,0.0
52551.0,STARLINK-3969,PAYLOAD,2024-01-30 02:18:26,15.08844354,0.0001645,53.2192,343.956,105.1299,254.9876,2.329e-05,8.3e-07,0.0,0 STARLINK-3969,1 52551U 22051U   24030.09613599  .00000083  00000-0  23290-4 0  9990,2 52551  53.2192 343.9560 0001645 105.1299 254.9876 15.08844354 95260,6917.867,95.437,540.87,538.594,0.0
52551.0,STARLINK-3969,PAYLOAD,2024-01-30 19:47:41,15.08835864,0.0001639,53.2198,340.6916,103.3944,256.7231,0.00011354,1.519e-05,0.0,0 STARLINK-3969,1 52551U 22051U   24030.82478149  .00001519  00000-0  11354-3 0  9993,2 52551  53.2198 340.6916 0001639 103.3944 256.7231 15.08835864 95446,6917.893,95.438,540.892,538.624,0.0
52551.0,STARLINK-3969,PAYLOAD,2024-01-31 05:19:59,15.08844837,0.000154,53.2191,338.9069,95.0797,265.0371,0.00013523,1.865e-05,0.0,0 STARLINK-3969,1 52551U 22051U   24031.22221564  .00001865  00000-0  13523-3 0  9999,2 52551  53.2191 338.9069 0001540  95.0797 265.0371 15.08844837 95507,6917.866,95.437,540.796,538.665,0.0
52551.0,STARLINK-3969,PAYLOAD,2024-02-01 03:35:23,15.08838755,0.0001501,53.2189,334.7454,92.4387,267.6777,8.8518e-05,1.121e-05,0.0,0 STARLINK-3969,1 52551U 22051U   24032.14958237  .00001121  00000-0  88518-4 0  9997,2 52551  53.2189 334.7454 0001501  92.4387 267.6777 15.08838755 95644,6917.884,95.438,540.788,538.711,0.0
52551.0,STARLINK-3969,PAYLOAD,2024-02-01 19:29:15,15.08840731,0.0001471,53.2186,331.7709,94.1195,265.9965,7.9728e-05,9.81e-06,0.0,0 STARLINK-3969,1 52551U 22051U   24032.81198223  .00000981  00000-0  79728-4 0  9998,2 52551  53.2186 331.7709 0001471  94.1195 265.9965 15.08840731 95673,6917.878,95.438,540.761,538.726,0.0
52551.0,STARLINK-3969,PAYLOAD,2024-02-02 03:26:10,15.08846297,0.0001637,53.2189,330.2849,82.9531,277.1648,0.00011047,1.471e-05,0.0,0 STARLINK-3969,1 52551U 22051U   24033.14317897  .00001471  00000-0  11047-3 0  9999,2 52551  53.2189 330.2849 0001637  82.9531 277.1648 15.08846297 95720,6917.861,95.437,540.859,538.594,0.0
52551.0,STARLINK-3969,PAYLOAD,2024-02-02 19:20:02,15.08839374,0.0001695,53.2188,327.317,63.5623,296.5543,0.00016181,2.288e-05,0.0,0 STARLINK-3969,1 52551U 22051U   24033.80558200  .00002288  00000-0  16181-3 0  9998,2 52551  53.2188 327.3170 0001695  63.5623 296.5543 15.08839374 95899,6917.882,95.438,540.92,538.575,0.0
52551.0,STARLINK-3969,PAYLOAD,2024-02-03 01:41:34,15.08843064,0.0001548,53.2184,326.1233,77.8113,282.3053,5.5233e-05,5.91e-06,0.0,0 STARLINK-3969,1 52551U 22051U   24034.07054258  .00000591  00000-0  55233-4 0  9999,2 52551  53.2184 326.1233 0001548  77.8113 282.3053 15.08843064 95868,6917.871,95.437,540.807,538.665,0.0
52551.0,STARLINK-3969,PAYLOAD,2024-02-03 22:21:35,15.08847419,0.0001752,53.2186,322.2576,82.4068,277.7123,4.0037e-06,-2.24e-06,0.0,0 STARLINK-3969,1 52551U 22051U   24034.93165987 -.00000224  00000-0  40037-5 0  9997,2 52551  53.2186 322.2576 0001752  82.4068 277.7123 15.08847419 95993,6917.858,95.437,540.935,538.511,0.0
